[{"OBJECT_NAME":"HIBARI","OBJECT_ID":"2021-102F","EPOCH":"2026-03-09T16:55:51.090816","MEAN_MOTION":15.29554512,"ECCENTRICITY":0.00120742,"INCLINATION":97.3381,"RA_OF_ASC_NODE":115.826,"ARG_OF_PERICENTER":186.5211,"MEAN_ANOMALY":173.5875,"EPHEMERIS_TYPE":0,"CLASSIFICATION_TYPE":"U","NORAD_CAT_ID":49400,"ELEMENT_SET_NO":999,"REV_AT_EPOCH":23897,"BSTAR":0.00042758039,"MEAN_MOTION_DOT":0.00012206,"MEAN_MOTION_DDOT":0},{"OBJECT_NAME":"STARLINK-30926","OBJECT_ID":"2023-183M","EPOCH":"2026-03-09T22:57:33.417792","MEAN_MOTION":15.26727764,"ECCENTRICITY":0.00025494,"INCLINATION":43.002,"RA_OF_ASC_NODE":39.3381,"ARG_OF_PERICENTER":295.1193,"MEAN_ANOMALY":64.9394,"EPHEMERIS_TYPE":0,"CLASSIFICATION_TYPE":"U","NORAD_CAT_ID":58448,"ELEMENT_SET_NO":999,"REV_AT_EPOCH":12678,"BSTAR":-6.3321794e-5,"MEAN_MOTION_DOT":-1.958e-5,"MEAN_MOTION_DDOT":0}]
